{
  "type": "FeatureCollection",
  "features": [
    {
      "type": "Feature",
      "properties": {
        "norad_id": 37238,
        "name": "INTELSAT 17 (IS-17)",
        "group": "intelsat",
        "lat": -0.0004011689610954368,
        "lon": 147.34983167426515,
        "alt_km": 35793.85754357758,
        "timestamp": "2025-12-17T23:38:06.530521+00:00",
        "meta_object_name": "INTELSAT 17 (IS-17)",
        "meta_object_id": "2010-065B",
        "meta_epoch": "2025-12-17T13:38:20.745888",
        "meta_mean_motion": 1.00270595,
        "meta_eccentricity": 0.00026239,
        "meta_inclination": 0.0042,
        "meta_ra_of_asc_node": 89.1567,
        "meta_arg_of_pericenter": 190.5605,
        "meta_mean_anomaly": 77.3173,
        "meta_ephemeris_type": 0,
        "meta_classification_type": "U",
        "meta_norad_cat_id": 37238,
        "meta_element_set_no": 999,
        "meta_rev_at_epoch": 5142,
        "meta_bstar": 0,
        "meta_mean_motion_dot": 2.3e-07,
        "meta_mean_motion_ddot": 0,
        "tle_line1": "1 37238U 10065B   25351.56829567  .00000023  00000+0  00000+0 0  9992",
        "tle_line2": "2 37238   0.0042  89.1567 0002623 190.5605  77.3173  1.00270595 51425"
      },
      "geometry": {
        "type": "Point",
        "coordinates": [
          147.34983167426515,
          -0.0004011689610954368
        ]
      }
    },
    {
      "type": "Feature",
      "properties": {
        "norad_id": 37392,
        "name": "INTELSAT 28 (IS-28)",
        "group": "intelsat",
        "lat": -0.7484720043415429,
        "lon": 49.72373308294337,
        "alt_km": 35798.411364074396,
        "timestamp": "2025-12-17T23:38:06.530532+00:00",
        "meta_object_name": "INTELSAT 28 (IS-28)",
        "meta_object_id": "2011-016A",
        "meta_epoch": "2025-12-17T09:45:06.538752",
        "meta_mean_motion": 1.00270819,
        "meta_eccentricity": 0.00036896,
        "meta_inclination": 1.3361,
        "meta_ra_of_asc_node": 85.0047,
        "meta_arg_of_pericenter": 185.1218,
        "meta_mean_anomaly": 290.7545,
        "meta_ephemeris_type": 0,
        "meta_classification_type": "U",
        "meta_norad_cat_id": 37392,
        "meta_element_set_no": 999,
        "meta_rev_at_epoch": 5146,
        "meta_bstar": 0,
        "meta_mean_motion_dot": -2.01e-06,
        "meta_mean_motion_ddot": 0,
        "tle_line1": "1 37392U 11016A   25351.40632568 -.00000201  00000+0  00000+0 0  9995",
        "tle_line2": "2 37392   1.3361  85.0047 0003689 185.1218 290.7545  1.00270819 51462"
      },
      "geometry": {
        "type": "Point",
        "coordinates": [
          49.72373308294337,
          -0.7484720043415429
        ]
      }
    },
    {
      "type": "Feature",
      "properties": {
        "norad_id": 37834,
        "name": "INTELSAT 18 (IS-18)",
        "group": "intelsat",
        "lat": -0.03214987379350863,
        "lon": -98.64108283292855,
        "alt_km": 35779.08793680787,
        "timestamp": "2025-12-17T23:38:06.530544+00:00",
        "meta_object_name": "INTELSAT 18 (IS-18)",
        "meta_object_id": "2011-056A",
        "meta_epoch": "2025-12-17T12:31:57.514944",
        "meta_mean_motion": 1.00272076,
        "meta_eccentricity": 0.00017172,
        "meta_inclination": 0.0137,
        "meta_ra_of_asc_node": 312.3562,
        "meta_arg_of_pericenter": 327.9404,
        "meta_mean_anomaly": 174.0865,
        "meta_ephemeris_type": 0,
        "meta_classification_type": "U",
        "meta_norad_cat_id": 37834,
        "meta_element_set_no": 999,
        "meta_rev_at_epoch": 5199,
        "meta_bstar": 0,
        "meta_mean_motion_dot": 7.8e-07,
        "meta_mean_motion_ddot": 0,
        "tle_line1": "1 37834U 11056A   25351.52219346  .00000078  00000+0  00000+0 0  9999",
        "tle_line2": "2 37834   0.0137 312.3562 0001717 327.9404 174.0865  1.00272076 51995"
      },
      "geometry": {
        "type": "Point",
        "coordinates": [
          -98.64108283292855,
          -0.03214987379350863
        ]
      }
    },
    {
      "type": "Feature",
      "properties": {
        "norad_id": 38098,
        "name": "INTELSAT 22 (IS-22)",
        "group": "intelsat",
        "lat": 0.044991551911257706,
        "lon": 153.45035088393212,
        "alt_km": 35792.065204107916,
        "timestamp": "2025-12-17T23:38:06.530556+00:00",
        "meta_object_name": "INTELSAT 22 (IS-22)",
        "meta_object_id": "2012-011A",
        "meta_epoch": "2025-12-17T10:14:41.205984",
        "meta_mean_motion": 1.002706,
        "meta_eccentricity": 0.00018947,
        "meta_inclination": 0.0426,
        "meta_ra_of_asc_node": 54.7437,
        "meta_arg_of_pericenter": 233.9345,
        "meta_mean_anomaly": 23.3962,
        "meta_ephemeris_type": 0,
        "meta_classification_type": "U",
        "meta_norad_cat_id": 38098,
        "meta_element_set_no": 999,
        "meta_rev_at_epoch": 536,
        "meta_bstar": 0,
        "meta_mean_motion_dot": 0,
        "meta_mean_motion_ddot": 0,
        "tle_line1": "1 38098U 12011A   25351.42686581  .00000000  00000+0  00000+0 0  9997",
        "tle_line2": "2 38098   0.0426  54.7437 0001894 233.9345  23.3962  1.00270600  5368"
      },
      "geometry": {
        "type": "Point",
        "coordinates": [
          153.45035088393212,
          0.044991551911257706
        ]
      }
    },
    {
      "type": "Feature",
      "properties": {
        "norad_id": 38356,
        "name": "INTELSAT 19 (IS-19)",
        "group": "intelsat",
        "lat": -0.03430591420804102,
        "lon": -112.63344266778908,
        "alt_km": 35774.16588823461,
        "timestamp": "2025-12-17T23:38:06.530568+00:00",
        "meta_object_name": "INTELSAT 19 (IS-19)",
        "meta_object_id": "2012-030A",
        "meta_epoch": "2025-12-17T14:42:49.675680",
        "meta_mean_motion": 1.00272113,
        "meta_eccentricity": 0.00031802,
        "meta_inclination": 0.0086,
        "meta_ra_of_asc_node": 331.7592,
        "meta_arg_of_pericenter": 304.3575,
        "meta_mean_anomaly": 197.0923,
        "meta_ephemeris_type": 0,
        "meta_classification_type": "U",
        "meta_norad_cat_id": 38356,
        "meta_element_set_no": 999,
        "meta_rev_at_epoch": 4863,
        "meta_bstar": 0,
        "meta_mean_motion_dot": -3.1e-07,
        "meta_mean_motion_ddot": 0,
        "tle_line1": "1 38356U 12030A   25351.61307495 -.00000031  00000+0  00000+0 0  9995",
        "tle_line2": "2 38356   0.0086 331.7592 0003180 304.3575 197.0923  1.00272113 48639"
      },
      "geometry": {
        "type": "Point",
        "coordinates": [
          -112.63344266778908,
          -0.03430591420804102
        ]
      }
    },
    {
      "type": "Feature",
      "properties": {
        "norad_id": 38740,
        "name": "INTELSAT 20 (IS-20)",
        "group": "intelsat",
        "lat": 0.0036756631215670256,
        "lon": 149.8718912205646,
        "alt_km": 35773.09334695349,
        "timestamp": "2025-12-17T23:38:06.530580+00:00",
        "meta_object_name": "INTELSAT 20 (IS-20)",
        "meta_object_id": "2012-043A",
        "meta_epoch": "2025-12-17T10:13:41.302272",
        "meta_mean_motion": 1.00279815,
        "meta_eccentricity": 0.00028044,
        "meta_inclination": 0.0062,
        "meta_ra_of_asc_node": 74.0732,
        "meta_arg_of_pericenter": 100.0372,
        "meta_mean_anomaly": 134.1145,
        "meta_ephemeris_type": 0,
        "meta_classification_type": "U",
        "meta_norad_cat_id": 38740,
        "meta_element_set_no": 999,
        "meta_rev_at_epoch": 4892,
        "meta_bstar": 0,
        "meta_mean_motion_dot": -1e-08,
        "meta_mean_motion_ddot": 0,
        "tle_line1": "1 38740U 12043A   25351.42617248 -.00000001  00000+0  00000+0 0  9992",
        "tle_line2": "2 38740   0.0062  74.0732 0002804 100.0372 134.1145  1.00279815 48927"
      },
      "geometry": {
        "type": "Point",
        "coordinates": [
          149.8718912205646,
          0.0036756631215670256
        ]
      }
    },
    {
      "type": "Feature",
      "properties": {
        "norad_id": 38749,
        "name": "INTELSAT 21 (IS-21)",
        "group": "intelsat",
        "lat": 0.043272242726942585,
        "lon": 23.38614650580009,
        "alt_km": 35791.92424040111,
        "timestamp": "2025-12-17T23:38:06.530592+00:00",
        "meta_object_name": "INTELSAT 21 (IS-21)",
        "meta_object_id": "2012-045A",
        "meta_epoch": "2025-12-17T13:03:01.628640",
        "meta_mean_motion": 1.00269248,
        "meta_eccentricity": 0.00018667,
        "meta_inclination": 0.0326,
        "meta_ra_of_asc_node": 281.7984,
        "meta_arg_of_pericenter": 331.46,
        "meta_mean_anomaly": 330.9223,
        "meta_ephemeris_type": 0,
        "meta_classification_type": "U",
        "meta_norad_cat_id": 38749,
        "meta_element_set_no": 999,
        "meta_rev_at_epoch": 4870,
        "meta_bstar": 0,
        "meta_mean_motion_dot": -2.6e-06,
        "meta_mean_motion_ddot": 0,
        "tle_line1": "1 38749U 12045A   25351.54376885 -.00000260  00000+0  00000+0 0  9992",
        "tle_line2": "2 38749   0.0326 281.7984 0001866 331.4600 330.9223  1.00269248 48704"
      },
      "geometry": {
        "type": "Point",
        "coordinates": [
          23.38614650580009,
          0.043272242726942585
        ]
      }
    }
  ]
}